OBJECT_NAME,OBJECT_ID,EPOCH,MEAN_MOTION,ECCENTRICITY,INCLINATION,RA_OF_ASC_NODE,ARG_OF_PERICENTER,MEAN_ANOMALY,EPHEMERIS_TYPE,CLASSIFICATION_TYPE,NORAD_CAT_ID,ELEMENT_SET_NO,REV_AT_EPOCH,BSTAR,MEAN_MOTION_DOT,MEAN_MOTION_DDOT
AISTECHSAT 2,2018-099L,2026-06-17T14:48:46.702080,15.15452752,.0003161,97.4289,216.6419,307.9037,52.1909,0,U,43768,999,41234,.24964E-3,.4656E-4,0
FOX-1CLIFF (AO-95),2018-099N,2026-06-17T09:43:46.294752,15.26715554,.00079519,97.4379,228.6506,357.1065,3.0126,0,U,43770,999,41325,.33623107E-3,.877E-4,0
RANGE-A,2018-099R,2026-06-17T16:58:01.962624,15.13393523,.0009769,97.3960,211.2709,355.5696,4.5447,0,U,43773,999,41257,.1949E-3,.3418E-4,0
SNUSAT-2,2018-099AA,2026-06-17T15:53:22.643232,15.21844090,.0008585,97.4054,222.0387,296.5021,63.5334,0,U,43782,999,41310,.26699E-3,.6004E-4,0
SNUGLITE,2018-099AC,2026-06-17T16:01:42.847392,15.27188145,.0001206,97.3862,222.9431,287.0263,73.0844,0,U,43784,999,41339,.34663E-3,.9168E-4,0
ITASAT,2018-099AE,2026-06-17T14:44:54.793248,15.19062139,.0012039,97.4024,220.1177,358.8132,1.3072,0,U,43786,999,41297,.27237E-3,.5652E-4,0
EAGLET-I,2018-099AJ,2026-06-17T15:33:12.625056,15.12942431,.0010619,97.4227,218.3046,352.9170,7.1910,0,U,43790,999,41240,.15702E-3,.2706E-4,0
ESEO,2018-099AL,2026-06-17T15:30:11.627424,15.04249787,.0011259,97.3975,206.0143,338.4959,21.5793,0,U,43792,999,41187,.1252E-3,.1685E-4,0
THEA,2018-099AQ,2026-06-17T17:22:01.150752,15.35029307,.0005862,97.4440,238.4209,280.4320,79.6263,0,U,43796,999,41277,.42487E-3,.14375E-3,0
ASTROCAST 0.1,2018-099AS,2026-06-17T18:40:19.066080,15.49572058,.0005175,97.4371,247.2935,201.8725,158.2306,0,U,43798,999,41452,.53529E-3,.29537E-3,0
JY1SAT (JO-97),2018-099AX,2026-06-17T03:51:50.109696,15.33652151,.00043325,97.4126,230.9950,262.3288,97.7462,0,U,43803,999,41362,.39004137E-3,.12621E-3,0
SUOMI-100,2018-099AY,2026-06-17T17:31:13.052352,15.28425014,.0008368,97.4180,229.1213,276.6398,83.3889,0,U,43804,999,41350,.35543E-3,.9773E-4,0
CENTAURI-1,2018-099BD,2026-06-17T16:01:53.690592,15.16370185,.0013029,97.4218,220.3773,332.1745,27.8789,0,U,43809,999,41257,.21264E-3,.4069E-4,0
GLOBAL-2,2018-099BG,2026-06-17T16:07:20.292960,15.08673241,.0006975,97.3550,205.1652,141.1410,219.0322,0,U,43812,999,41198,.13919E-3,.2122E-4,0
SEAHAWK-1,2018-099BQ,2026-06-17T17:27:51.272928,15.22815015,.0006698,97.3951,221.2049,313.5327,46.5353,0,U,43820,999,41261,.27831E-3,.6443E-4,0
SAUDISAT 5A,2018-102A,2026-06-17T21:14:37.901760,15.28054500,.0011049,97.3065,230.4528,126.9359,233.2894,0,U,43831,999,41578,.16976E-3,.4578E-4,0
SAUDISAT 5B,2018-102C,2026-06-17T20:07:18.960096,15.28310245,.0011722,97.3172,233.4777,129.2727,230.9554,0,U,43833,999,41589,.15947E-3,.4331E-4,0
ISAT,2018-111D,2026-06-17T19:14:08.653056,15.65390296,.0001064,97.5886,104.0698,148.9986,211.1336,0,U,43879,999,41126,.82021E-3,.82225E-3,0
UWE-4,2018-111E,2026-06-17T19:08:32.335008,15.46158858,.0005426,97.5854,97.2166,339.8201,20.2832,0,U,43880,999,41087,.56593E-3,.27737E-3,0
D-STAR ONE (SPARROW),2018-111F,2026-06-17T19:55:27.939072,15.74617867,.0004445,97.6120,109.7297,113.5899,246.5832,0,U,43881,999,41147,.92678E-3,.13699E-2,0
JILIN-1 09,2019-005B,2026-06-17T20:06:52.960608,15.20519643,.0003779,97.4742,263.7948,93.3033,266.8634,0,U,43943,999,40924,.16912E-3,.3629E-4,0
JILIN-1 10,2019-005E,2026-06-17T20:21:08.610912,15.25728770,.0006565,97.4790,267.6520,276.1826,83.8664,0,U,43946,999,40941,.18728E-3,.4704E-4,0
EGYPTSAT-A (MISRSAT-A),2019-008A,2026-06-17T19:44:54.829248,14.72309101,.0001284,98.0187,233.5749,94.2665,265.8689,0,U,44047,999,39333,.11475E-3,.676E-5,0
EMISAT,2019-018A,2026-06-17T20:05:52.067616,14.43686871,.0017728,98.4645,227.6343,212.6475,147.3620,0,U,44078,999,38015,.28241E-4,.52E-6,0
JILIN-1 GAOFEN 3A,2019-032C,2026-06-17T19:15:02.964096,15.32639990,.0006425,44.9754,353.5520,298.8918,61.1322,0,U,44312,999,38793,.29734E-3,.926E-4,0
WT 1B,2019-032G,2026-06-17T20:29:12.430176,15.27191100,.0009951,44.9723,57.3009,252.2022,107.7775,0,U,44316,999,38718,.26518E-3,.6919E-4,0
PROX-1,2019-036A,2026-06-17T04:35:15.988128,14.90607207,.00057538,23.9926,114.2231,36.9692,323.1203,0,U,44339,999,37347,.99478852E-3,.10269E-3,0
NPSAT1,2019-036B,2026-06-16T20:19:16.512096,14.74576836,.00072222,23.9973,219.9806,202.4838,157.5341,0,U,44340,999,37244,.53158873E-3,.3869E-4,0
